sat00602
1 00602U 63014E   20046.38433946 -.00000007  00000-0 -42495-2 0  9999
2 00602  87.3371  50.8028 0060981 250.3049 109.1221  8.67227684797244
